[{"OBJECT_NAME":"STARLINK-30103","OBJECT_ID":"2023-056E","EPOCH":"2026-03-09T22:00:01.999584","MEAN_MOTION":15.26736868,"ECCENTRICITY":0.00023268,"INCLINATION":42.9993,"RA_OF_ASC_NODE":207.4054,"ARG_OF_PERICENTER":264.6,"MEAN_ANOMALY":232.0817,"EPHEMERIS_TYPE":0,"CLASSIFICATION_TYPE":"U","NORAD_CAT_ID":56290,"ELEMENT_SET_NO":999,"REV_AT_EPOCH":572,"BSTAR":0.0017273975,"MEAN_MOTION_DOT":0.00046364,"MEAN_MOTION_DDOT":0},{"OBJECT_NAME":"OBJECT H","OBJECT_ID":"2023-091H","EPOCH":"2026-03-09T22:34:46.487712","MEAN_MOTION":15.26380881,"ECCENTRICITY":0.00117854,"INCLINATION":97.5166,"RA_OF_ASC_NODE":131.4381,"ARG_OF_PERICENTER":104.1062,"MEAN_ANOMALY":256.1487,"EPHEMERIS_TYPE":0,"CLASSIFICATION_TYPE":"U","NORAD_CAT_ID":57173,"ELEMENT_SET_NO":999,"REV_AT_EPOCH":14915,"BSTAR":0.00056321781,"MEAN_MOTION_DOT":0.00014617,"MEAN_MOTION_DDOT":0}]
